STARLINK-4445           
1 53474U 22099K   24196.30178151 -.00000038  00000+0  16387-5 0  9994
2 53474  97.6556 316.7424 0003552 220.4446 139.6514 15.01253237105450
STARLINK-4389           
1 53475U 22099L   24196.57368219  .00002755  00000+0  21893-3 0  9993
2 53475  97.6537 317.0123 0005044 219.2737 140.8122 15.01274475106195
STARLINK-4378           
1 53476U 22099M   24196.57738643  .00002379  00000+0  18972-3 0  9992
2 53476  97.6534 317.0183 0003724 239.9984 120.0871 15.01271271105499
STARLINK-4412           
1 53477U 22099N   24196.57578448  .00016218  00000+0  12632-2 0  9991
2 53477  97.6535 317.0029 0003584 227.2355 132.8568 15.01292352106191
STARLINK-4433           
1 53478U 22099P   24196.56998269  .00003562  00000+0  28165-3 0  9995
2 53478  97.6544 317.0209 0004111 203.7866 156.3168 15.01274373105497
STARLINK-4436           
1 53479U 22099Q   24196.30152592  .00001359  00000+0  11039-3 0  9993
2 53479  97.6552 316.7405 0003918 215.6005 144.4958 15.01266037105451
STARLINK-4442           
1 53480U 22099R   24196.57183308  .00000910  00000+0  75461-4 0  9995
2 53480  97.6547 317.0096 0004581 215.7050 144.3869 15.01269246105494
STARLINK-4302           
1 53481U 22099S   24196.29967574  .00002192  00000+0  17521-3 0  9996
2 53481  97.6563 316.7411 0003347 196.6806 163.4309 15.01264620105453
STARLINK-4360           
1 53482U 22099T   24196.28856445  .00001543  00000+0  12465-3 0  9991
2 53482  97.6569 316.7700 0001260 247.0031 113.1060 15.01268824105450
STARLINK-4401           
1 53483U 22099U   24196.61997624  .00001418  00000+0  11495-3 0  9997
2 53483  97.6572 317.0890 0000800 238.6082 121.5064 15.01264615105507
STARLINK-4426           
1 53484U 22099V   24196.29782315  .00001054  00000+0  86612-4 0  9991
2 53484  97.6577 316.7409 0003090 191.7048 168.4104 15.01270137105455
STARLINK-4430           
1 53485U 22099W   24196.29227108  .00000139  00000+0  15439-4 0  9998
2 53485  97.6582 316.7433 0002392 177.7762 182.3473 15.01275472105451
STARLINK-4431           
1 53486U 22099X   24196.29597483  .00000837  00000+0  69761-4 0  9997
2 53486  97.6589 316.7422 0002687 173.3453 186.7808 15.01268798105456
STARLINK-4432           
1 53487U 22099Y   24196.29622346  .00013057  00000+0  10184-2 0  9996
2 53487  97.6586 316.7245 0003232 203.6204 156.4872 15.01290673105457
STARLINK-4421           
1 53488U 22099Z   24196.29412286  .00001174  00000+0  95977-4 0  9999
2 53488  97.6583 316.7435 0000779 195.4162 164.7039 15.01268037105456
STARLINK-4392           
1 53489U 22099AA  24196.29437056  .00004739  00000+0  37316-3 0  9994
2 53489  97.6585 316.7253 0002308 191.1227 168.9947 15.01277207105455
STARLINK-4387           
1 53490U 22099AB  24196.62367775  .00001291  00000+0  10504-3 0  9993
2 53490  97.6576 317.0732 0001765 201.0077 159.1075 15.01266695105502
STARLINK-4450           
1 53491U 22099AC  24196.61281362  .00003633  00000+0  28717-3 0  9997
2 53491  97.6564 317.0747 0000774 140.0001 220.1280 15.01274693105508
STARLINK-4451           
1 53492U 22099AD  24196.61811988  .00002073  00000+0  16583-3 0  9996
2 53492  97.6566 317.0755 0000077 247.5975 112.5241 15.01277633105507
STARLINK-4361           
1 53493U 22099AE  24196.61627371  .00001703  00000+0  13714-3 0  9990
2 53493  97.6569 317.0619 0001016 248.1111 112.0005 15.01268456105509
STARLINK-4340           
1 53494U 22099AF  24196.62022558  .00001314  00000+0  10689-3 0  9994
2 53494  97.6575 317.0670 0000572 244.0227 116.0938 15.01266076105508
STARLINK-4429           
1 53495U 22099AG  24196.61073056  .00008233  00000+0  64492-3 0  9991
2 53495  97.6555 317.0635 0001450 104.7843 255.3542 15.01252654105505
STARLINK-4465           
1 53496U 22099AH  24196.61443313  .00006609  00000+0  51893-3 0  9995
2 53496  97.6568 317.0677 0000681 230.7242 129.3921 15.01239745105501
STARLINK-4453           
1 53497U 22099AJ  24196.60702207  .00000652  00000+0  55353-4 0  9993
2 53497  97.6559 317.0605 0001556  93.9074 266.2328 15.01268810105504
STARLINK-4439           
1 53498U 22099AK  24196.60726553  .00001700  00000+0  13690-3 0  9996
2 53498  97.6548 317.0722 0001680  94.5147 265.6269 15.01270850105503
STARLINK-4454           
1 53499U 22099AL  24196.61257325  .00001660  00000+0  13376-3 0  9990
2 53499  97.6562 317.0499 0000203 175.3750 184.7476 15.01270107105505
STARLINK-4455           
1 53500U 22099AM  24196.60886915  .00001418  00000+0  11491-3 0  9992
2 53500  97.6557 317.0634 0001521  86.8058 273.3341 15.01273342105504
STARLINK-4434           
1 53501U 22099AN  24196.33300710  .00000748  00000+0  62810-4 0  9994
2 53501  97.6552 316.7933 0001553  89.3234 270.8168 15.01268978105460
STARLINK-4435           
1 53502U 22099AP  24196.60517227  .00002901  00000+0  23033-3 0  9994
2 53502  97.6552 317.0585 0001698  94.7277 265.4141 15.01260482105503
STARLINK-4461           
1 53503U 22099AQ  24196.60541298  .00000909  00000+0  75313-4 0  9995
2 53503  97.6556 317.0455 0001540  89.8325 270.3076 15.01273322105508
STARLINK-4448           
1 53504U 22099AR  24196.60331853  .00000391  00000+0  35057-4 0  9996
2 53504  97.6550 317.0560 0001589  96.2988 263.8417 15.01268973105502
STARLINK-4446           
1 53505U 22099AS  24196.59591280  .00000622  00000+0  53035-4 0  9990
2 53505  97.6564 317.0486 0001735 100.3920 259.7499 15.01268823105509
STARLINK-4437           
1 53506U 22099AT  24196.33487434  .00000137  00000+0  15231-4 0  9995
2 53506  97.6546 316.7830 0001834  84.8163 275.3270 15.01260918105467
STARLINK-4444           
1 53507U 22099AU  24196.59406090  .00000910  00000+0  75409-4 0  9995
2 53507  97.6552 317.0452 0001489  97.8609 262.2784 15.01269343105741
STARLINK-4443           
1 53508U 22099AV  24196.59776222  .00000357  00000+0  32337-4 0  9991
2 53508  97.6548 317.0499 0001599  97.5109 262.6297 15.01272710105501
STARLINK-4402           
1 53509U 22099AW  24196.59220674  .00001398  00000+0  11334-3 0  9996
2 53509  97.6551 317.0393 0001294  96.3808 263.7563 15.01272711105503
STARLINK-4441           
1 53510U 22099AX  24196.58850471  .00000159  00000+0  16936-4 0  9999
2 53510  97.6538 317.0467 0000756  97.7365 262.3945 15.01267971105508
STARLINK-4511           
1 53527U 22101A   24196.46128922  .00000299  00000+0  36871-4 0  9992
2 53527  53.2163 262.1208 0001110  89.7818 270.3301 15.08846891105090
STARLINK-4503           
1 53528U 22101B   24196.46496656 -.00000711  00000+0 -26573-4 0  9994
2 53528  53.2179 262.1058 0001433  88.8193 271.2963 15.08853207105098
STARLINK-4478           
1 53529U 22101C   24196.45761202  .00001075  00000+0  85638-4 0  9995
2 53529  53.2169 262.1462 0001447 100.6066 259.5089 15.08847042105092
STARLINK-4482           
1 53530U 22101D   24196.47235803  .00000240  00000+0  33169-4 0  9997
2 53530  53.2175 262.2940 0001312  99.6319 260.4821 15.08841762105090
STARLINK-4487           
1 53531U 22101E   24196.45393244  .00000155  00000+0  27851-4 0  9996
2 53531  53.2167 262.1514 0001462 110.4520 249.6629 15.08844139105096
STARLINK-4483           
1 53532U 22101F   24196.48705359 -.00000114  00000+0  10906-4 0  9993
2 53532  53.2174 262.0085 0001296  85.4136 274.7004 15.08839355105108
STARLINK-4493           
1 53533U 22101G   24196.48337779  .00001498  00000+0  11222-3 0  9997
2 53533  53.2184 262.0161 0001412 104.0004 256.1145 15.08833276105103
STARLINK-4488           
1 53534U 22101H   24196.44654035  .00001076  00000+0  85662-4 0  9993
2 53534  53.2136 261.9169 0001319  85.7854 274.3289 15.08842570105109
STARLINK-4138           
1 53535U 22101J   24196.47969100  .00001459  00000+0  10972-3 0  9995
2 53535  53.2168 262.0411 0001262  86.1155 273.9981 15.08840435105105
STARLINK-4053           
1 53536U 22101K   24196.52108270  .00000695  00000+0  61734-4 0  9999
2 53536  53.2154 251.7752 0001258  82.1700 277.9435 15.08838721105249
STARLINK-4120           
1 53537U 22101L   24196.48065562  .00002183  00000+0  15523-3 0  9999
2 53537  53.2178 262.0095 0001401  89.1139 271.0014 15.08834437105107
STARLINK-4118           
1 53538U 22101M   24196.45853769  .00002115  00000+0  15096-3 0  9991
2 53538  53.2172 252.1337 0001388 102.9696 257.1451 15.08838092105928
STARLINK-4123           
1 53539U 22101N   24196.47601655  .00003773  00000+0  25497-3 0  9996
2 53539  53.2156 262.0557 0001278  84.6692 275.4446 15.08845126105108
STARLINK-4486           
1 53540U 22101P   24196.42273431 -.00000187  00000+0  63295-5 0  9997
2 53540  53.2158 252.6478 0001186  91.3652 268.7476 15.08840342105910
STARLINK-4485           
1 53541U 22101Q   24196.46864880 -.00000924  00000+0 -39930-4 0  9994
2 53541  53.2174 262.0882 0001317  90.9591 269.1552 15.08850891105792
STARLINK-4489           
1 53542U 22101R   24196.44749171 -.00000073  00000+0  13515-4 0  9993
2 53542  53.2171 252.1852 0001228  89.8899 270.2234 15.08840226105922
STARLINK-4297           
1 53543U 22101S   24196.59469888 -.00000087  00000+0  12645-4 0  9992
2 53543  53.2176 251.5903 0001437  91.6229 268.4928 15.08843509105946
STARLINK-4303           
1 53544U 22101T   24196.57260787  .00001373  00000+0  10435-3 0  9990
2 53544  53.2151 251.6217 0001289  89.2399 270.8741 15.08846068105926
STARLINK-4475           
1 53545U 22101U   24196.45117748 -.00000493  00000+0 -12859-4 0  9993
2 53545  53.2172 252.1704 0001443 102.7386 257.3767 15.08836353105920
STARLINK-4477           
1 53546U 22101V   24196.38948281 -.00000232  00000+0  35253-5 0  9994
2 53546  53.2156 241.9738 0001168  93.0452 267.0674 15.08839821105373
STARLINK-4474           
1 53547U 22101W   24196.44381798  .00001284  00000+0  98780-4 0  9996
2 53547  53.2171 252.2024 0001186  88.2836 271.8292 15.08836496105909
STARLINK-4513           
1 53548U 22101X   24196.56157511  .00003132  00000+0  21473-3 0  9992
2 53548  53.2159 251.6701 0001535  95.6916 264.4251 15.08847294105259
